ELYSIUM STAR 2 & LFF    
1 43760U 18099C   24282.80911850  .00250249  00000+0  47626-2 0  9995
2 43760  97.4987 352.2848 0006067 227.2120 132.8619 15.47270572320659
